[{"OBJECT_NAME":"JY1SAT (JO-97)","OBJECT_ID":"2018-099AX","EPOCH":"2026-03-09T16:28:19.890048","MEAN_MOTION":15.30302629,"ECCENTRICITY":0.00047232,"INCLINATION":97.4249,"RA_OF_ASC_NODE":131.3625,"ARG_OF_PERICENTER":256.6795,"MEAN_ANOMALY":103.3919,"EPHEMERIS_TYPE":0,"CLASSIFICATION_TYPE":"U","NORAD_CAT_ID":43803,"ELEMENT_SET_NO":999,"REV_AT_EPOCH":39839,"BSTAR":0.00060804308,"MEAN_MOTION_DOT":0.00017774,"MEAN_MOTION_DDOT":0},{"OBJECT_NAME":"STARLINK-31573","OBJECT_ID":"2024-057Q","EPOCH":"2026-03-09T08:39:12.852288","MEAN_MOTION":15.27550253,"ECCENTRICITY":0.00014389,"INCLINATION":43.0023,"RA_OF_ASC_NODE":188.5038,"ARG_OF_PERICENTER":261.047,"MEAN_ANOMALY":99.0218,"EPHEMERIS_TYPE":0,"CLASSIFICATION_TYPE":"U","NORAD_CAT_ID":59334,"ELEMENT_SET_NO":999,"REV_AT_EPOCH":10979,"BSTAR":0.00010866706,"MEAN_MOTION_DOT":2.727e-5,"MEAN_MOTION_DDOT":0}]
